COMS 1                  
1 36744U 10032A   22262.83313163 -.00000350  00000+0  00000+0 0  9999
2 36744   1.3165  92.0063 0000886 102.9765 231.8099  1.00272248 37383
FENGYUN 3B              
1 37214U 10059A   22263.15335756 -.00000031  00000+0  81055-5 0  9990
2 37214  99.0950 270.8176 0023179  88.2620 272.1209 14.14264603614342
SUOMI NPP               
1 37849U 11061A   22263.44098587  .00000054  00000+0  46247-4 0  9995
2 37849  98.7365 200.6918 0001151  78.8593  62.4374 14.19544301564660
FENGYUN 2F              
1 38049U 12002A   22263.52447067 -.00000361  00000+0  00000+0 0  9998
2 38049   4.0185  78.9210 0000872 347.0899 234.0494  1.00282315 39198
METEOSAT-10 (MSG-3)     
1 38552U 12035B   22262.78522806  .00000055  00000+0  00000+0 0  9994
2 38552   1.6666  46.1081 0001246 140.0630 104.5954  1.00266056 37157
METOP-B                 
1 38771U 12049A   22263.44528743  .00000059  00000+0  47091-4 0  9992
2 38771  98.7203 321.7691 0001824 103.0581 348.4678 14.21474237519223
FENGYUN 3C              
1 39260U 13052A   22263.17290721  .00000053  00000+0  47538-4 0  9993
2 39260  98.4501 286.4721 0011278   7.7600 352.3748 14.15943102465320
METEOR-M 2              
1 40069U 14037A   22263.54076032 -.00000005  00000+0  17023-4 0  9998
2 40069  98.4311 277.0037 0006661  52.8529 307.3259 14.20718448425361
HIMAWARI-8              
1 40267U 14060A   22262.84224135 -.00000282  00000+0  00000+0 0  9994
2 40267   0.0254 219.5915 0001111 350.1349 232.8570  1.00271127 29057
FENGYUN 2G              
1 40367U 14090A   22263.44868944 -.00000308  00000+0  00000+0 0  9996
2 40367   2.1685  88.4951 0002624 201.7392 330.1872  1.00278407 28347
METEOSAT-11 (MSG-4)     
1 40732U 15034A   22262.77340910 -.00000012  00000+0  00000+0 0  9996
2 40732   0.4890  72.0645 0000899  51.9760 152.6338  1.00273640 26321
ELEKTRO-L 2             
1 41105U 15074A   22262.85216808 -.00000121  00000+0  00000+0 0  9993
2 41105   3.2201  87.0165 0002861 108.5269  95.4550  1.00270654 24814
HIMAWARI-9              
1 41836U 16064A   22262.84224095 -.00000281  00000+0  00000+0 0  9997
2 41836   0.0188 140.2625 0000921  86.5007 215.9329  1.00270384 21480
GOES 16                 
1 41866U 16071A   22263.42876542 -.00000254  00000+0  00000+0 0  9993
2 41866   0.0750 287.3803 0000721 310.9469 200.1422  1.00272792 21411
FENGYUN 4A              
1 41882U 16077A   22262.53174205 -.00000336  00000+0  00000+0 0  9996
2 41882   0.2056  86.8993 0002122  60.2136 147.3224  1.00267816 21272
CYGFM05                 
1 41884U 16078A   22262.58128514  .00003186  00000+0  15975-3 0  9992
2 41884  34.9574 335.4184 0015212 216.4755 143.4921 15.16766320319080
CYGFM04                 
1 41885U 16078B   22262.86318577  .00003032  00000+0  14984-3 0  9993
2 41885  34.9502 322.3607 0013889 236.1673 123.7717 15.17309247319179
CYGFM02                 
1 41886U 16078C   22262.85160602  .00002972  00000+0  14673-3 0  9994
2 41886  34.9596 324.6720 0014584 230.0554 129.8877 15.17348312319257
CYGFM01                 
1 41887U 16078D   22263.51688375  .00003013  00000+0  15196-3 0  9999
2 41887  34.9541 332.1323 0015736 223.6802 136.2665 15.16576663319297
CYGFM08                 
1 41888U 16078E   22263.47188104  .00003082  00000+0  15331-3 0  9997
2 41888  34.9508 324.6140 0015030 235.4383 124.4911 15.17054520319338
CYGFM06                 
1 41889U 16078F   22263.48892336  .00002950  00000+0  14561-3 0  9995
2 41889  34.9588 319.3600 0013566 235.4494 124.4938 15.17367547319429
CYGFM07                 
1 41890U 16078G   22263.47751823  .00003061  00000+0  15133-3 0  9991
2 41890  34.9526 318.2849 0013393 239.7703 120.1683 15.17298424319421
CYGFM03                 
1 41891U 16078H   22263.47624709  .00003135  00000+0  15495-3 0  9997
2 41891  34.9559 318.7899 0012884 237.9180 122.0281 15.17303232319419
FENGYUN 3D              
1 43010U 17072A   22263.52863168  .00000086  00000+0  62097-4 0  9990
2 43010  98.8216 207.6834 0002083  17.5701 342.5537 14.19223756251252
NOAA 20                 
1 43013U 17073A   22263.44783485  .00000044  00000+0  41649-4 0  9992
2 43013  98.7204 200.5321 0001446 103.9208 256.2130 14.19543969250708
GOES 17                 
1 43226U 18022A   22262.68591035  .00000092  00000+0  00000+0 0  9990
2 43226   0.0765 283.7173 0000312 294.5462 249.9066  1.00272329 16724
FENGYUN 2H              
1 43491U 18050A   22262.86345296 -.00000132  00000+0  00000+0 0  9997
2 43491   1.3814  95.3330 0003781  65.1794 228.0376  1.00275041 15738
METOP-C                 
1 43689U 18087A   22263.46426085  .00000054  00000+0  44368-4 0  9991
2 43689  98.6750 321.8689 0003762 117.5099 242.6461 14.21508232200807
GEO-KOMPSAT-2A          
1 43823U 18100A   22263.38290455 -.00000350  00000+0  00000+0 0  9998
2 43823   0.0427  26.3143 0001242 115.0573 124.0010  1.00271756 13961
METEOR-M2 2             
1 44387U 19038A   22263.51975906  .00000022  00000+0  28804-4 0  9993
2 44387  98.7324 223.5786 0001847  36.3279 323.8016 14.23720229166934
FENGYUN 3E              
1 49008U 21062A   22263.30210989 -.00000002  00000+0  19469-4 0  9994
2 49008  98.7154 263.7799 0002896  78.5878 281.5624 14.19738538 62777
GOES 18                 
1 51850U 22021A   22263.18888306  .00000090  00000+0  00000+0 0  9990
2 51850   0.0408   3.9096 0002871 214.8917  71.2917  1.00272130  2106
CHUANGXIN 16 (CX-16)    
1 53586U 22102A   22262.52516717  .00001880  00000+0  16933-3 0  9993
2 53586  28.9974 192.2615 0004947 171.3097 188.7585 14.91708669  4104
BEIJING-3B              
1 53587U 22103A   22263.55054623  .00000848  00000+0  99962-4 0  9999
2 53587  97.9392 332.1750 0014647 168.3172 191.8391 14.87323396  4080
STARLINK-4691           
1 53588U 22104A   22262.91667824 -.01143985  00000+0 -16517-1 0  9998
2 53588  53.2173 175.5830 0001294 101.8902  67.1217 15.58140312  1306
STARLINK-4673           
1 53589U 22104B   22263.25001157 -.01115280  00000+0 -16508-1 0  9995
2 53589  53.2172 173.9608 0001254 109.6018 135.0319 15.57413440  3664
STARLINK-4689           
1 53590U 22104C   22263.25001157 -.01115329  00000+0 -16557-1 0  9995
2 53590  53.2172 173.9703 0001352 120.3171 120.0821 15.57335382  3661
STARLINK-4674           
1 53591U 22104D   22262.91667824 -.01156865  00000+0 -16691-1 0  9996
2 53591  53.2173 175.5781 0001292 104.7743  66.3031 15.58190672  1307
STARLINK-4672           
1 53592U 22104E   22263.25001157 -.01115186  00000+0 -16531-1 0  9990
2 53592  53.2172 173.9660 0001224 103.2655 139.2522 15.57374339  3665
STARLINK-4671           
1 53593U 22104F   22263.25001157 -.01115342  00000+0 -16521-1 0  9994
2 53593  53.2172 173.9633 0001289 114.1729 129.4030 15.57393939  3662
STARLINK-4681           
1 53594U 22104G   22263.25001157 -.01115151  00000+0 -16482-1 0  9999
2 53594  53.2172 173.9576 0001187  90.9246 155.8229 15.57452375  3664
STARLINK-4684           
1 53595U 22104H   22263.25001157 -.01115439  00000+0 -16498-1 0  9996
2 53595  53.2172 173.9590 0001331 119.1845 126.5064 15.57433027  4083
STARLINK-4668           
1 53596U 22104J   22263.58334491 -.01114842  00000+0 -16969-1 0  9993
2 53596  53.2173 172.3405 0001179 119.7235 198.8741 15.56670695  3718
STARLINK-4682           
1 53597U 22104K   22263.25001157 -.01115441  00000+0 -16474-1 0  9995
2 53597  53.2172 173.9549 0001280 113.9818 133.8217 15.57472056  3663
STARLINK-4676           
1 53598U 22104L   22262.91667824 -.01140886  00000+0 -16346-1 0  9996
2 53598  53.2174 175.5602 0001261  80.5735 100.0261 15.58335489  1303
STARLINK-4665           
1 53599U 22104M   22263.58334491  .00154109  00000+0  67331-3 0  9994
2 53599  53.2151 170.6482 0002402  32.8822  35.8938 15.83761836  3738
STARLINK-4677           
1 53600U 22104N   22263.25001157 -.01115496  00000+0 -16425-1 0  9996
2 53600  53.2172 173.9443 0001252 111.5627 141.7085 15.57552604  4088
STARLINK-4675           
1 53601U 22104P   22263.25001157 -.01115482  00000+0 -16461-1 0  9992
2 53601  53.2172 173.9504 0001280 114.4935 135.6150 15.57494036  3664
STARLINK-4648           
1 53602U 22104Q   22262.91667824 -.00005008  00000+0 -31314-4 0  9992
2 53602  53.2145 175.2190 0001331 107.4752 241.6871 15.73181127  1306
STARLINK-4692           
1 53603U 22104R   22263.58334491  .00080549  00000+0  57477-3 0  9996
2 53603  53.2149 171.9199 0001204 104.5125  61.9388 15.73121267  3727
STARLINK-4690           
1 53604U 22104S   22263.58334491 -.00017157  00000+0 -11800-3 0  9994
2 53604  53.2159 171.9215 0001120 131.4968  36.7372 15.73215763  3727
STARLINK-4693           
1 53605U 22104T   22263.25001157 -.01115573  00000+0 -16438-1 0  9991
2 53605  53.2172 173.9463 0001318 119.0599 133.1576 15.57533122  3666
STARLINK-4590           
1 53606U 22104U   22263.25001157 -.00004919  00000+0 -30616-4 0  9999
2 53606  53.2144 173.5642 0001127  95.5801 347.3209 15.73227702  3678
STARLINK-4591           
1 53607U 22104V   22263.25001157  .00003106  00000+0  26524-4 0  9998
2 53607  53.2146 173.5708 0000877  91.8435 346.8700 15.73207503  3674
STARLINK-4647           
1 53608U 22104W   22262.91667824 -.00028558  00000+0 -19960-3 0  9995
2 53608  53.2143 175.2127 0000986 120.2580 231.8776 15.73218655  1309
STARLINK-4660           
1 53609U 22104X   22263.58334491  .00079794  00000+0  56902-3 0  9994
2 53609  53.2149 171.9153 0001203 128.1763  40.6400 15.73140244  3727
STARLINK-4610           
1 53610U 22104Y   22263.58334491  .00107121  00000+0  75903-3 0  9994
2 53610  53.2148 171.9110 0001028 122.9457  48.2703 15.73167325  3727
STARLINK-4650           
1 53611U 22104Z   22263.58334491  .00010885  00000+0  81796-4 0  9993
2 53611  53.2146 171.9128 0001224 113.7456  55.6921 15.73221367  3721
STARLINK-4658           
1 53612U 22104AA  22262.91667824 -.00043664  00000+0 -30782-3 0  9990
2 53612  53.2144 175.2074 0001350 142.0320 213.0954 15.73236348  1305
